[{"OBJECT_NAME":"STARLINK-5771","OBJECT_ID":"2023-042AP","EPOCH":"2026-03-09T07:43:44.707008","MEAN_MOTION":15.03041905,"ECCENTRICITY":0.00018472,"INCLINATION":43.0045,"RA_OF_ASC_NODE":45.2113,"ARG_OF_PERICENTER":257.6913,"MEAN_ANOMALY":102.3723,"EPHEMERIS_TYPE":0,"CLASSIFICATION_TYPE":"U","NORAD_CAT_ID":56023,"ELEMENT_SET_NO":999,"REV_AT_EPOCH":16300,"BSTAR":0.0045779413,"MEAN_MOTION_DOT":0.00063039,"MEAN_MOTION_DDOT":0},{"OBJECT_NAME":"COSMOS 397 DEB","OBJECT_ID":"1971-015N","EPOCH":"2026-03-09T21:59:22.745472","MEAN_MOTION":14.31890042,"ECCENTRICITY":0.0375916,"INCLINATION":65.6812,"RA_OF_ASC_NODE":51.6354,"ARG_OF_PERICENTER":68.3492,"MEAN_ANOMALY":295.7191,"EPHEMERIS_TYPE":0,"CLASSIFICATION_TYPE":"U","NORAD_CAT_ID":5019,"ELEMENT_SET_NO":999,"REV_AT_EPOCH":69800,"BSTAR":0.0019195844,"MEAN_MOTION_DOT":0.0001123,"MEAN_MOTION_DDOT":0}]
